[{"OBJECT_NAME":"IRIDIUM 179","OBJECT_ID":"2023-068W","EPOCH":"2026-03-09T22:21:59.547744","MEAN_MOTION":14.80238607,"ECCENTRICITY":0.00023232,"INCLINATION":86.672,"RA_OF_ASC_NODE":75.5287,"ARG_OF_PERICENTER":95.2951,"MEAN_ANOMALY":264.8536,"EPHEMERIS_TYPE":0,"CLASSIFICATION_TYPE":"U","NORAD_CAT_ID":56730,"ELEMENT_SET_NO":999,"REV_AT_EPOCH":15168,"BSTAR":8.1626328e-5,"MEAN_MOTION_DOT":6.46e-6,"MEAN_MOTION_DDOT":0},{"OBJECT_NAME":"NOAA 16 DEB","OBJECT_ID":"2000-055CW","EPOCH":"2026-03-07T07:19:51.843360","MEAN_MOTION":14.8431285,"ECCENTRICITY":0.0024489,"INCLINATION":99.0144,"RA_OF_ASC_NODE":13.4315,"ARG_OF_PERICENTER":245.2612,"MEAN_ANOMALY":114.605,"EPHEMERIS_TYPE":0,"CLASSIFICATION_TYPE":"U","NORAD_CAT_ID":41163,"ELEMENT_SET_NO":999,"REV_AT_EPOCH":53806,"BSTAR":0.0082493,"MEAN_MOTION_DOT":0.00070186,"MEAN_MOTION_DDOT":0}]
